OBJECT_NAME,OBJECT_ID,EPOCH,MEAN_MOTION,ECCENTRICITY,INCLINATION,RA_OF_ASC_NODE,ARG_OF_PERICENTER,MEAN_ANOMALY,EPHEMERIS_TYPE,CLASSIFICATION_TYPE,NORAD_CAT_ID,ELEMENT_SET_NO,REV_AT_EPOCH,BSTAR,MEAN_MOTION_DOT,MEAN_MOTION_DDOT
KUIPER-00615,2026-151M,2026-07-11T12:00:02.000160,15.37160603,.000603,51.8772,198.2637,133.6221,325.5528,0,U,69774,999,130,.13242E-2,.48879E-3,0
KUIPER-00616,2026-151N,2026-07-11T12:00:02.000160,15.38318352,.0003099,51.8783,198.1913,107.2547,26.9108,0,U,69775,999,130,.12582E-2,.4819E-3,0
KUIPER-00617,2026-151P,2026-07-11T12:00:02.000160,15.37704874,.0003983,51.8795,198.2197,120.9261,358.0722,0,U,69776,999,130,.13167E-2,.4946E-3,0
KUIPER-00619,2026-151Q,2026-07-11T12:00:02.000160,15.38466639,.0001814,51.8801,198.1661,48.1546,95.3763,0,U,69777,999,147,.12676E-2,.48791E-3,0
KUIPER-00621,2026-151R,2026-07-11T12:00:02.000160,15.38257946,.0001982,51.8793,198.1863,96.5264,39.2146,0,U,69778,999,222,.12854E-2,.49143E-3,0
KUIPER-00622,2026-151S,2026-07-11T12:00:02.000160,15.36921528,.0006756,51.8732,198.2787,135.0295,317.7668,0,U,69779,999,208,.13525E-2,.49558E-3,0
KUIPER-00623,2026-151T,2026-07-11T12:00:02.000160,15.37363928,.0004971,51.8777,198.2428,121.0276,348.1719,0,U,69780,999,220,.13236E-2,.49175E-3,0
KUIPER-00626,2026-151U,2026-07-11T12:00:02.000160,15.35623698,.0010082,51.8713,198.3449,154.1122,265.9662,0,U,69781,999,244,.12726E-2,.44699E-3,0
KUIPER-00627,2026-151V,2026-07-11T12:00:02.000160,15.35473745,.0011149,51.8686,198.3621,155.4581,256.0701,0,U,69782,999,130,.13993E-2,.48995E-3,0
KUIPER-00629,2026-151W,2026-07-11T12:00:02.000160,15.36899273,.0007277,51.8742,198.2830,134.6118,315.8544,0,U,69783,999,177,.13518E-2,.495E-3,0
KUIPER-00631,2026-151X,2026-07-11T12:00:02.000160,15.36669542,.0007807,51.8709,198.2989,142.3020,300.5402,0,U,69784,999,130,.1349E-2,.49033E-3,0
KUIPER-00634,2026-151Y,2026-07-11T12:00:02.000160,15.37663860,.0003653,51.8770,198.2282,121.1893,355.5703,0,U,69785,999,130,.13119E-2,.49209E-3,0
KUIPER-00639,2026-151Z,2026-07-11T12:00:02.000160,15.35939344,.0009646,51.8684,198.3294,150.6296,277.0769,0,U,69786,999,130,.12256E-2,.43462E-3,0
KUIPER-00641,2026-151AA,2026-07-11T12:00:02.000160,15.35196339,.0010708,51.8673,198.3620,149.3799,261.9828,0,U,69787,999,208,.12911E-2,.44747E-3,0
KUIPER-00644,2026-151AB,2026-07-11T12:00:02.000160,15.36489564,.0008487,51.8735,198.3112,144.9133,291.8214,0,U,69788,999,238,.13929E-2,.50366E-3,0
KUIPER-00646,2026-151AC,2026-07-11T12:00:02.000160,15.35946874,.0009855,51.8700,198.3266,149.6838,279.4040,0,U,69789,999,130,.16577E-2,.59061E-3,0
KUIPER-00647,2026-151AD,2026-07-11T12:00:02.000160,15.35587309,.0010507,51.8659,198.3548,150.9983,263.7392,0,U,69790,999,222,.13434E-2,.47175E-3,0
KUIPER-00662,2026-151AE,2026-07-11T12:00:02.000160,15.36583249,.0008456,51.8722,198.3049,139.8432,300.0447,0,U,69791,999,130,.13666E-2,.4955E-3,0
LINK,2026-152A,2026-07-11T04:09:20.617056,15.66050615,.0023011,20.5839,358.3338,299.7734,60.0425,0,U,69792,999,122,.9561E-3,.106023E-2,0
2026-152B,2026-152B,2026-07-10T17:31:58.799424,15.64467828,.0022152,20.5985,1.8062,291.2307,68.5774,0,U,69793,999,115,.40138E-3,.41951E-3,0
ISS OBJECT YJ,1998-067YJ,2026-07-10T09:47:24.566208,15.49832001,.00078249,51.6301,185.1277,294.4662,65.5510,0,U,69794,999,125,.39913492E-3,.22274E-3,0
ISS OBJECT YK,1998-067YK,2026-07-10T09:44:40.826976,15.50360143,.00069107,51.6301,185.1147,304.3877,55.6458,0,U,69795,999,125,.73296608E-3,.42168E-3,0
ISS OBJECT YL,1998-067YL,2026-07-10T09:45:10.667808,15.50205172,.0008915,51.6300,185.1173,296.0075,63.9996,0,U,69796,999,124,.56779012E-3,.3236E-3,0
ISS OBJECT YM,1998-067YM,2026-07-10T08:12:09.616608,15.50233141,.00096656,51.6301,185.4352,286.9825,73.0104,0,U,69797,999,122,.5746412E-3,.328E-3,0
ISS OBJECT YN,1998-067YN,2026-07-10T09:45:14.510880,15.50120443,.00093145,51.6301,185.1176,298.1188,61.8859,0,U,69798,999,125,.40679807E-3,.22959E-3,0
ISS OBJECT YP,1998-067YP,2026-07-10T09:44:52.854720,15.50243158,.00098361,51.6300,185.1152,287.2373,72.7539,0,U,69799,999,124,.5739948E-3,.32776E-3,0
STARLINK-37520,2026-154A,2026-07-11T12:00:02.000160,15.97023280,.0000862,53.1599,311.7495,67.5194,356.8617,0,U,69819,999,207,-.40703E-2,-.1797938E-1,.93988E-3
STARLINK-37553,2026-154B,2026-07-11T12:00:02.000160,15.97144185,.0000833,53.1597,311.7444,70.7193,356.1006,0,U,69820,999,207,-.40183E-2,-.1786952E-1,.93044E-3
STARLINK-37561,2026-154C,2026-07-11T12:00:02.000160,15.97281802,.0000933,53.1598,311.7393,71.5229,357.7492,0,U,69821,999,207,-.40381E-2,-.1809157E-1,.95343E-3
STARLINK-37521,2026-154D,2026-07-11T12:00:02.000160,15.97395559,.0000877,53.1598,311.7352,70.0269,1.2018,0,U,69822,999,207,-.39683E-2,-.1789361E-1,.93528E-3
