KUIPER-00615            
1 69774U 26151M   26192.50002315  .00048879  00000+0  13242-2 0  9993
2 69774  51.8772 198.2637 0006030 133.6221 325.5528 15.37160603  1304
KUIPER-00616            
1 69775U 26151N   26192.50002315  .00048190  00000+0  12582-2 0  9996
2 69775  51.8783 198.1913 0003099 107.2547  26.9108 15.38318352  1306
KUIPER-00617            
1 69776U 26151P   26192.50002315  .00049460  00000+0  13167-2 0  9998
2 69776  51.8795 198.2197 0003983 120.9261 358.0722 15.37704874  1300
KUIPER-00619            
1 69777U 26151Q   26192.50002315  .00048791  00000+0  12676-2 0  9999
2 69777  51.8801 198.1661 0001814  48.1546  95.3763 15.38466639  1471
KUIPER-00621            
1 69778U 26151R   26192.50002315  .00049143  00000+0  12854-2 0  9990
2 69778  51.8793 198.1863 0001982  96.5264  39.2146 15.38257946  2221
KUIPER-00622            
1 69779U 26151S   26192.50002315  .00049558  00000+0  13525-2 0  9997
2 69779  51.8732 198.2787 0006756 135.0295 317.7668 15.36921528  2087
KUIPER-00623            
1 69780U 26151T   26192.50002315  .00049175  00000+0  13236-2 0  9993
2 69780  51.8777 198.2428 0004971 121.0276 348.1719 15.37363928  2205
KUIPER-00626            
1 69781U 26151U   26192.50002315  .00044699  00000+0  12726-2 0  9993
2 69781  51.8713 198.3449 0010082 154.1122 265.9662 15.35623698  2447
KUIPER-00627            
1 69782U 26151V   26192.50002315  .00048995  00000+0  13993-2 0  9994
2 69782  51.8686 198.3621 0011149 155.4581 256.0701 15.35473745  1302
KUIPER-00629            
1 69783U 26151W   26192.50002315  .00049500  00000+0  13518-2 0  9991
2 69783  51.8742 198.2830 0007277 134.6118 315.8544 15.36899273  1778
KUIPER-00631            
1 69784U 26151X   26192.50002315  .00049033  00000+0  13490-2 0  9992
2 69784  51.8709 198.2989 0007807 142.3020 300.5402 15.36669542  1301
KUIPER-00634            
1 69785U 26151Y   26192.50002315  .00049209  00000+0  13119-2 0  9996
2 69785  51.8770 198.2282 0003653 121.1893 355.5703 15.37663860  1306
KUIPER-00639            
1 69786U 26151Z   26192.50002315  .00043462  00000+0  12256-2 0  9993
2 69786  51.8684 198.3294 0009646 150.6296 277.0769 15.35939344  1308
KUIPER-00641            
1 69787U 26151AA  26192.50002315  .00044747  00000+0  12911-2 0  9999
2 69787  51.8673 198.3620 0010708 149.3799 261.9828 15.35196339  2087
KUIPER-00644            
1 69788U 26151AB  26192.50002315  .00050366  00000+0  13929-2 0  9994
2 69788  51.8735 198.3112 0008487 144.9133 291.8214 15.36489564  2387
KUIPER-00646            
1 69789U 26151AC  26192.50002315  .00059061  00000+0  16577-2 0  9998
2 69789  51.8700 198.3266 0009855 149.6838 279.4040 15.35946874  1305
KUIPER-00647            
1 69790U 26151AD  26192.50002315  .00047175  00000+0  13434-2 0  9992
2 69790  51.8659 198.3548 0010507 150.9983 263.7392 15.35587309  2227
KUIPER-00662            
1 69791U 26151AE  26192.50002315  .00049550  00000+0  13666-2 0  9999
2 69791  51.8722 198.3049 0008456 139.8432 300.0447 15.36583249  1304
LINK                    
1 69792U 26152A   26192.17315529  .00106023  00000+0  95610-3 0  9997
2 69792  20.5839 358.3338 0023011 299.7734  60.0425 15.66050615  1220
2026-152B               
1 69793U 26152B   26191.73054166  .00041951  00000+0  40138-3 0  9999
2 69793  20.5985   1.8062 0022152 291.2307  68.5774 15.64467828  1153
ISS OBJECT YJ           
1 69794U 98067YJ  26191.40792322  .00022274  00000+0  39913-3 0  9997
2 69794  51.6301 185.1277 0007824 294.4662  65.5510 15.49832001  1251
ISS OBJECT YK           
1 69795U 98067YK  26191.40602809  .00042168  00000+0  73297-3 0  9995
2 69795  51.6301 185.1147 0006910 304.3877  55.6458 15.50360143  1258
ISS OBJECT YL           
1 69796U 98067YL  26191.40637347  .00032360  00000+0  56779-3 0  9990
2 69796  51.6300 185.1173 0008915 296.0075  63.9996 15.50205172  1249
ISS OBJECT YM           
1 69797U 98067YM  26191.34177797  .00032800  00000+0  57464-3 0  9993
2 69797  51.6301 185.4352 0009665 286.9825  73.0104 15.50233141  1225
ISS OBJECT YN           
1 69798U 98067YN  26191.40641795  .00022959  00000+0  40680-3 0  9991
2 69798  51.6301 185.1176 0009314 298.1188  61.8859 15.50120443  1250
ISS OBJECT YP           
1 69799U 98067YP  26191.40616730  .00032776  00000+0  57399-3 0  9996
2 69799  51.6300 185.1152 0009836 287.2373  72.7539 15.50243158  1242
STARLINK-37520          
1 69819U 26154A   26192.50002315 -.01797938  93988-3 -40703-2 0  9999
2 69819  53.1599 311.7495 0000862  67.5194 356.8617 15.97023280  2077
STARLINK-37553          
1 69820U 26154B   26192.50002315 -.01786952  93044-3 -40183-2 0  9990
2 69820  53.1597 311.7444 0000833  70.7193 356.1006 15.97144185  2077
STARLINK-37561          
1 69821U 26154C   26192.50002315 -.01809157  95343-3 -40381-2 0  9998
2 69821  53.1598 311.7393 0000933  71.5229 357.7492 15.97281802  2076
STARLINK-37521          
1 69822U 26154D   26192.50002315 -.01789361  93528-3 -39683-2 0  9999
2 69822  53.1598 311.7352 0000877  70.0269   1.2018 15.97395559  2077
